[{"OBJECT_NAME":"BISONSAT","OBJECT_ID":"2015-058L","EPOCH":"2026-03-09T11:49:35.353056","MEAN_MOTION":15.13791398,"ECCENTRICITY":0.00792382,"INCLINATION":64.7598,"RA_OF_ASC_NODE":135.3937,"ARG_OF_PERICENTER":90.6713,"MEAN_ANOMALY":270.349,"EPHEMERIS_TYPE":0,"CLASSIFICATION_TYPE":"U","NORAD_CAT_ID":40974,"ELEMENT_SET_NO":999,"REV_AT_EPOCH":10051,"BSTAR":0.0006711096,"MEAN_MOTION_DOT":0.00012971,"MEAN_MOTION_DDOT":0},{"OBJECT_NAME":"STARLINK-31121","OBJECT_ID":"2023-211U","EPOCH":"2026-03-09T11:01:09.708096","MEAN_MOTION":15.27644877,"ECCENTRICITY":0.00011028,"INCLINATION":42.9995,"RA_OF_ASC_NODE":86.2025,"ARG_OF_PERICENTER":209.0829,"MEAN_ANOMALY":150.9962,"EPHEMERIS_TYPE":0,"CLASSIFICATION_TYPE":"U","NORAD_CAT_ID":58685,"ELEMENT_SET_NO":999,"REV_AT_EPOCH":12243,"BSTAR":-0.0006483732,"MEAN_MOTION_DOT":-0.00018096,"MEAN_MOTION_DDOT":0}]
